[
    {
        "Altitude(m)": 624792.7511536363,
        "Argument of Periapsis(deg)": 0.0,
        "Eccentricity": 0.0,
        "Inclination(deg)": 60.0,
        "Latitude(deg)": -59.14702415416371,
        "Longitude(deg)": 149.026258902803,
        "Mean Anomaly(deg)": -98.18179999999998,
        "RAAN(deg)": 355.0,
        "Satellite Name": "Test1 1578",
        "Satellite Number": 1578,
        "Semi-Major Axis(m)": 6980739.136638005,
        "Time(s)": 0
    },
    {
        "Altitude(m)": 624842.1438066987,
        "Argument of Periapsis(deg)": 0.00010418945913296404,
        "Eccentricity": 0.0,
        "Inclination(deg)": 60.0,
        "Latitude(deg)": -59.28910945737515,
        "Longitude(deg)": 150.1557600866967,
        "Mean Anomaly(deg)": -97.56169385453813,
        "RAAN(deg)": 354.99957995086027,
        "Satellite Name": "Test1 1578",
        "Satellite Number": 1578,
        "Semi-Major Axis(m)": 6980739.136638005,
        "Time(s)": 10
    },
    {
        "Altitude(m)": 624887.71220765,
        "Argument of Periapsis(deg)": 0.0002083789182659281,
        "Eccentricity": 0.0,
        "Inclination(deg)": 60.0,
        "Latitude(deg)": -59.420583948065,
        "Longitude(deg)": 151.29468189984468,
        "Mean Anomaly(deg)": -96.94158770907629,
        "RAAN(deg)": 354.99915990172053,
        "Satellite Name": "Test1 1578",
        "Satellite Number": 1578,
        "Semi-Major Axis(m)": 6980739.136638005,
        "Time(s)": 20
    },
    {
        "Altitude(m)": 624929.4383928716,
        "Argument of Periapsis(deg)": 0.00031256837739889213,
        "Eccentricity": 0.0,
        "Inclination(deg)": 60.0,
        "Latitude(deg)": -59.541310323830004,
        "Longitude(deg)": 152.44240204461025,
        "Mean Anomaly(deg)": -96.32148156361448,
        "RAAN(deg)": 354.9987398525808,
        "Satellite Name": "Test1 1578",
        "Satellite Number": 1578,
        "Semi-Major Axis(m)": 6980739.136638005,
        "Time(s)": 30
    },
    {
        "Altitude(m)": 624967.3059099116,
        "Argument of Periapsis(deg)": 0.0004167578365318562,
        "Eccentricity": 0.0,
        "Inclination(deg)": 60.0,
        "Latitude(deg)": -59.65116041554846,
        "Longitude(deg)": 153.59826323844854,
        "Mean Anomaly(deg)": -95.70137541815262,
        "RAAN(deg)": 354.99831980344106,
        "Satellite Name": "Test1 1578",
        "Satellite Number": 1578,
        "Semi-Major Axis(m)": 6980739.136638005,
        "Time(s)": 40
    },
    {
        "Altitude(m)": 625001.299824418,
        "Argument of Periapsis(deg)": 0.0005209472956648203,
        "Eccentricity": 0.0,
        "Inclination(deg)": 60.0,
        "Latitude(deg)": -59.75001582647069,
        "Longitude(deg)": 154.76157405056176,
        "Mean Anomaly(deg)": -95.08126927269078,
        "RAAN(deg)": 354.99789975430133,
        "Satellite Name": "Test1 1578",
        "Satellite Number": 1578,
        "Semi-Major Axis(m)": 6980739.136638005,
        "Time(s)": 50
    },
    {
        "Altitude(m)": 625031.4067264332,
        "Argument of Periapsis(deg)": 0.0006251367547977843,
        "Eccentricity": 0.0,
        "Inclination(deg)": 60.0,
        "Latitude(deg)": -59.837768538239274,
        "Longitude(deg)": 155.93161157612414,
        "Mean Anomaly(deg)": -94.46116312722903,
        "RAAN(deg)": 354.99747970516154,
        "Satellite Name": "Test1 1578",
        "Satellite Number": 1578,
        "Semi-Major Axis(m)": 6980739.136638005,
        "Time(s)": 60
    },
    {
        "Altitude(m)": 625057.6147360415,
        "Argument of Periapsis(deg)": 0.0007293262139307483,
        "Eccentricity": 0.0,
        "Inclination(deg)": 60.0,
        "Latitude(deg)": -59.91432147700145,
        "Longitude(deg)": 157.10762442496878,
        "Mean Anomaly(deg)": -93.84105698176712,
        "RAAN(deg)": 354.99705965602186,
        "Satellite Name": "Test1 1578",
        "Satellite Number": 1578,
        "Semi-Major Axis(m)": 6980739.136638005,
        "Time(s)": 70
    },
    {
        "Altitude(m)": 625079.9135083696,
        "Argument of Periapsis(deg)": 0.0008335156730637124,
        "Eccentricity": 0.0,
        "Inclination(deg)": 60.0,
        "Latitude(deg)": -59.9795890329805,
        "Longitude(deg)": 158.28883449596057,
        "Mean Anomaly(deg)": -93.22095083630536,
        "RAAN(deg)": 354.99663960688207,
        "Satellite Name": "Test1 1578",
        "Satellite Number": 1578,
        "Semi-Major Axis(m)": 6980739.136638005,
        "Time(s)": 80
    },
    {
        "Altitude(m)": 625098.2942379504,
        "Argument of Periapsis(deg)": 0.0009377051321966765,
        "Eccentricity": 0.0,
        "Inclination(deg)": 60.0,
        "Latitude(deg)": -60.03349752723454,
        "Longitude(deg)": 159.47444054140564,
        "Mean Anomaly(deg)": -92.60084469084352,
        "RAAN(deg)": 354.9962195577423,
        "Satellite Name": "Test1 1578",
        "Satellite Number": 1578,
        "Semi-Major Axis(m)": 6980739.136638005,
        "Time(s)": 90
    },
    {
        "Altitude(m)": 625112.7496624237,
        "Argument of Periapsis(deg)": 0.0010418945913296407,
        "Eccentricity": 0.0,
        "Inclination(deg)": 60.0,
        "Latitude(deg)": -60.075985619808,
        "Longitude(deg)": 160.66362198192115,
        "Mean Anomaly(deg)": -91.98073854538167,
        "RAAN(deg)": 354.99579950860254,
        "Satellite Name": "Test1 1578",
        "Satellite Number": 1578,
        "Semi-Major Axis(m)": 6980739.136638005,
        "Time(s)": 100
    },
    {
        "Altitude(m)": 625123.274065594,
        "Argument of Periapsis(deg)": 0.0011460840504626045,
        "Eccentricity": 0.0,
        "Inclination(deg)": 60.0,
        "Latitude(deg)": -60.10700465409072,
        "Longitude(deg)": 161.85554142726602,
        "Mean Anomaly(deg)": -91.36063239991987,
        "RAAN(deg)": 354.9953794594628,
        "Satellite Name": "Test1 1578",
        "Satellite Number": 1578,
        "Semi-Major Axis(m)": 6980739.136638005,
        "Time(s)": 110
    },
    {
        "Altitude(m)": 625129.8632798424,
        "Argument of Periapsis(deg)": 0.0012502735095955685,
        "Eccentricity": 0.0,
        "Inclination(deg)": 60.0,
        "Latitude(deg)": -60.126518932933664,
        "Longitude(deg)": 163.04934889280526,
        "Mean Anomaly(deg)": -90.740526254458,
        "RAAN(deg)": 354.9949594103231,
        "Satellite Name": "Test1 1578",
        "Satellite Number": 1578,
        "Semi-Major Axis(m)": 6980739.136638005,
        "Time(s)": 120
    },
    {
        "Altitude(m)": 625132.5146878876,
        "Argument of Periapsis(deg)": 0.0013544629687285324,
        "Eccentricity": 0.0,
        "Inclination(deg)": 60.0,
        "Latitude(deg)": -60.134505922891414,
        "Longitude(deg)": 164.24418615889093,
        "Mean Anomaly(deg)": -90.12042010899626,
        "RAAN(deg)": 354.99453936118334,
        "Satellite Name": "Test1 1578",
        "Satellite Number": 1578,
        "Semi-Major Axis(m)": 6980739.136638005,
        "Time(s)": 130
    },
    {
        "Altitude(m)": 625131.2272238785,
        "Argument of Periapsis(deg)": 0.0014586524278614966,
        "Eccentricity": 0.0,
        "Inclination(deg)": 60.0,
        "Latitude(deg)": -60.13095638387331,
        "Longitude(deg)": 165.4391897174423,
        "Mean Anomaly(deg)": -89.5003139635344,
        "RAAN(deg)": 354.9941193120436,
        "Satellite Name": "Test1 1578",
        "Satellite Number": 1578,
        "Semi-Major Axis(m)": 6980739.136638005,
        "Time(s)": 140
    },
    {
        "Altitude(m)": 625126.0013738478,
        "Argument of Periapsis(deg)": 0.0015628418869944607,
        "Eccentricity": 0.0,
        "Inclination(deg)": 60.0,
        "Latitude(deg)": -60.115874422472814,
        "Longitude(deg)": 166.63349528648487,
        "Mean Anomaly(deg)": -88.8802078180726,
        "RAAN(deg)": 354.9936992629039,
        "Satellite Name": "Test1 1578",
        "Satellite Number": 1578,
        "Semi-Major Axis(m)": 6980739.136638005,
        "Time(s)": 150
    },
    {
        "Altitude(m)": 625116.8391755234,
        "Argument of Periapsis(deg)": 0.0016670313461274247,
        "Eccentricity": 0.0,
        "Inclination(deg)": 60.0,
        "Latitude(deg)": -60.08927746825384,
        "Longitude(deg)": 167.82624233362415,
        "Mean Anomaly(deg)": -88.26010167261076,
        "RAAN(deg)": 354.99327921376414,
        "Satellite Name": "Test1 1578",
        "Satellite Number": 1578,
        "Semi-Major Axis(m)": 6980739.136638005,
        "Time(s)": 160
    },
    {
        "Altitude(m)": 625103.7442174499,
        "Argument of Periapsis(deg)": 0.0017712208052603888,
        "Eccentricity": 0.0,
        "Inclination(deg)": 60.0,
        "Latitude(deg)": -60.05119617331153,
        "Longitude(deg)": 169.01657704922823,
        "Mean Anomaly(deg)": -87.6399955271489,
        "RAAN(deg)": 354.99285916462435,
        "Satellite Name": "Test1 1578",
        "Satellite Number": 1578,
        "Semi-Major Axis(m)": 6980739.136638005,
        "Time(s)": 170
    },
    {
        "Altitude(m)": 625086.7216375091,
        "Argument of Periapsis(deg)": 0.001875410264393353,
        "Eccentricity": 0.0,
        "Inclination(deg)": 60.0,
        "Latitude(deg)": -60.001674236460815,
        "Longitude(deg)": 170.20365674951728,
        "Mean Anomaly(deg)": -87.01988938168704,
        "RAAN(deg)": 354.9924391154846,
        "Satellite Name": "Test1 1578",
        "Satellite Number": 1578,
        "Semi-Major Axis(m)": 6980739.136638005,
        "Time(s)": 180
    },
    {
        "Altitude(m)": 625065.7781207415,
        "Argument of Periapsis(deg)": 0.0019795997235263173,
        "Eccentricity": 0.0,
        "Inclination(deg)": 60.0,
        "Latitude(deg)": -59.940768154394554,
        "Longitude(deg)": 171.38665415291115,
        "Mean Anomaly(deg)": -86.39978323622525,
        "RAAN(deg)": 354.9920190663449,
        "Satellite Name": "Test1 1578",
        "Satellite Number": 1578,
        "Semi-Major Axis(m)": 6980739.136638005,
        "Time(s)": 190
    }
]